CTC2_L_00237016-03
1 10062U 23026YN  26075.70043981  .00000000  00000+0  00000-0 0  9993
2 10062  45.0000 180.0000 0000000   0.0000   0.0000 14.15679949    15
CTC2_L_00237016-04
1 10063U 23645YS  26075.70043981  .00000000  00000+0  00000-0 0  9991
2 10063  45.0000 180.0000 0000000   0.0000  90.0000 14.15679949    15
CTC2_L_00237017-01
1 10064U 25404AK  26075.70043981  .00000000  00000+0  00000-0 0  9997
2 10064  45.0000 192.0000 0000000   0.0000 192.0000 14.15679949    12
CTC2_L_00237017-02
1 10065U 25930DY  26075.70043981  .00000000  00000+0  00000-0 0  9992
2 10065  45.0000 192.0000 0000000   0.0000 282.0000 14.15679949    13
CTC2_L_00237017-03
1 10066U 25784U   26075.70043981  .00000000  00000+0  00000-0 0  9990
2 10066  45.0000 192.0000 0000000   0.0000  12.0000 14.15679949    15
CTC2_L_00237017-04
1 10067U 25400ZL  26075.70043981  .00000000  00000+0  00000-0 0  9996
2 10067  45.0000 192.0000 0000000   0.0000 102.0000 14.15679949    16
CTC2_L_00237018-01
1 10068U 24520ZV  26075.70043981  .00000000  00000+0  00000-0 0  9999
2 10068  45.0000 204.0000 0000000   0.0000 204.0000 14.15679949    14
CTC2_L_00237018-02
1 10069U 22322N   26075.70043981  .00000000  00000+0  00000-0 0  9998
2 10069  45.0000 204.0000 0000000   0.0000 294.0000 14.15679949    14
CTC2_L_00237018-03
1 10070U 23809SO  26075.70043981  .00000000  00000+0  00000-0 0  9991
2 10070  45.0000 204.0000 0000000   0.0000  24.0000 14.15679949    17
CTC2_L_00237018-04
1 10071U 22150YF  26075.70043981  .00000000  00000+0  00000-0 0  9990
2 10071  45.0000 204.0000 0000000   0.0000 114.0000 14.15679949    18
CTC2_L_00237019-01
1 10072U 26369EQ  26075.70043981  .00000000  00000+0  00000-0 0  9997
2 10072  45.0000 216.0000 0000000   0.0000 216.0000 14.15679949    15
CTC2_L_00237019-02
1 10073U 24541XR  26075.70043981  .00000000  00000+0  00000-0 0  9998
2 10073  45.0000 216.0000 0000000   0.0000 306.0000 14.15679949    16
CTC2_L_00237019-03
1 10074U 25720HJ  26075.70043981  .00000000  00000+0  00000-0 0  9999
2 10074  45.0000 216.0000 0000000   0.0000  36.0000 14.15679949    17
CTC2_L_00237019-04
1 10075U 22401HK  26075.70043981  .00000000  00000+0  00000-0 0  9993
2 10075  45.0000 216.0000 0000000   0.0000 126.0000 14.15679949    18
CTC2_L_00237020-01
1 10076U 22595DL  26075.70043981  .00000000  00000+0  00000-0 0  9998
2 10076  45.0000 228.0000 0000000   0.0000 228.0000 14.15679949    15
CTC2_L_00237020-02
1 10077U 23612YI  26075.70043981  .00000000  00000+0  00000-0 0  9990
2 10077  45.0000 228.0000 0000000   0.0000 318.0000 14.15679949    16
CTC2_L_00237020-03
1 10078U 23917JZ  26075.70043981  .00000000  00000+0  00000-0 0  9999
2 10078  45.0000 228.0000 0000000   0.0000  48.0000 14.15679949    17
CTC2_L_00237020-04
1 10079U 22319G   26075.70043981  .00000000  00000+0  00000-0 0  9995
2 10079  45.0000 228.0000 0000000   0.0000 138.0000 14.15679949    18
CTC2_L_00237021-01
1 10080U 25041XA  26075.70043981  .00000000  00000+0  00000-0 0  9992
2 10080  45.0000 240.0000 0000000   0.0000 240.0000 14.15679949    18
CTC2_L_00237021-02
1 10081U 26207KS  26075.70043981  .00000000  00000+0  00000-0 0  9998
2 10081  45.0000 240.0000 0000000   0.0000 330.0000 14.15679949    19
CTC2_L_00237021-03
1 10082U 22396WB  26075.70043981  .00000000  00000+0  00000-0 0  9994
2 10082  45.0000 240.0000 0000000   0.0000  60.0000 14.15679949    10
CTC2_L_00237021-04
1 10083U 23661JB  26075.70043981  .00000000  00000+0  00000-0 0  9991
2 10083  45.0000 240.0000 0000000   0.0000 150.0000 14.15679949    11
CTC2_L_00237022-01
1 10084U 24317OU  26075.70043981  .00000000  00000+0  00000-0 0  9991
2 10084  45.0000 252.0000 0000000   0.0000 252.0000 14.15679949    18
CTC2_L_00237022-02
1 10085U 23567BV  26075.70043981  .00000000  00000+0  00000-0 0  9998
2 10085  45.0000 252.0000 0000000   0.0000 342.0000 14.15679949    19
CTC2_L_00237022-03
1 10086U 24146JW  26075.70043981  .00000000  00000+0  00000-0 0  9993
2 10086  45.0000 252.0000 0000000   0.0000  72.0000 14.15679949    10
CTC2_L_00237022-04
1 10087U 22489UQ  26075.70043981  .00000000  00000+0  00000-0 0  9992
2 10087  45.0000 252.0000 0000000   0.0000 162.0000 14.15679949    11
CTC2_L_00237023-01
1 10088U 24992XE  26075.70043981  .00000000  00000+0  00000-0 0  9994
2 10088  45.0000 264.0000 0000000   0.0000 264.0000 14.15679949    18
CTC2_L_00237023-02
1 10089U 25684LZ  26075.70043981  .00000000  00000+0  00000-0 0  9994
2 10089  45.0000 264.0000 0000000   0.0000 354.0000 14.15679949    19
CTC2_L_00237023-03
1 10090U 22809I   26075.70043981  .00000000  00000+0  00000-0 0  9992
2 10090  45.0000 264.0000 0000000   0.0000  84.0000 14.15679949    11
CTC2_L_00237023-04
1 10091U 26191VX  26075.70043981  .00000000  00000+0  00000-0 0  9991
2 10091  45.0000 264.0000 0000000   0.0000 174.0000 14.15679949    12
CTC2_L_00237024-01
1 10092U 25109RJ  26075.70043981  .00000000  00000+0  00000-0 0  9990
2 10092  45.0000 276.0000 0000000   0.0000 276.0000 14.15679949    19
CTC2_L_00237024-02
1 10093U 26527QS  26075.70043981  .00000000  00000+0  00000-0 0  9996
2 10093  45.0000 276.0000 0000000   0.0000   6.0000 14.15679949    11
CTC2_L_00237024-03
1 10094U 24027ME  26075.70043981  .00000000  00000+0  00000-0 0  9990
2 10094  45.0000 276.0000 0000000   0.0000  96.0000 14.15679949    11
CTC2_L_00237024-04
1 10095U 26296AR  26075.70043981  .00000000  00000+0  00000-0 0  9991
2 10095  45.0000 276.0000 0000000   0.0000 186.0000 14.15679949    12
CTC2_L_00237025-01
1 10096U 24996HV  26075.70043981  .00000000  00000+0  00000-0 0  9997
2 10096  45.0000 288.0000 0000000   0.0000 288.0000 14.15679949    19
CTC2_L_00237025-02
1 10097U 25440TT  26075.70043981  .00000000  00000+0  00000-0 0  9993
2 10097  45.0000 288.0000 0000000   0.0000  18.0000 14.15679949    11
CTC2_L_00237025-03
1 10098U 22890KV  26075.70043981  .00000000  00000+0  00000-0 0  9990
2 10098  45.0000 288.0000 0000000   0.0000 108.0000 14.15679949    12
CTC2_L_00237025-04
1 10099U 26389WY  26075.70043981  .00000000  00000+0  00000-0 0  9998
2 10099  45.0000 288.0000 0000000   0.0000 198.0000 14.15679949    12
CTC2_L_00237026-01
1 10100U 22473VM  26075.70043981  .00000000  00000+0  00000-0 0  9991
2 10100  45.0000 300.0000 0000000   0.0000 300.0000 14.15679949    15
CTC2_L_00237026-02
1 10101U 22026YZ  26075.70043981  .00000000  00000+0  00000-0 0  9996
2 10101  45.0000 300.0000 0000000   0.0000  30.0000 14.15679949    16
CTC2_L_00237026-03
1 10102U 23942KU  26075.70043981  .00000000  00000+0  00000-0 0  9995
2 10102  45.0000 300.0000 0000000   0.0000 120.0000 14.15679949    17
CTC2_L_00237026-04
1 10103U 26916GZ  26075.70043981  .00000000  00000+0  00000-0 0  9990
2 10103  45.0000 300.0000 0000000   0.0000 210.0000 14.15679949    18
CTC2_L_00237027-01
1 10104U 25434KZ  26075.70043981  .00000000  00000+0  00000-0 0  9995
2 10104  45.0000 312.0000 0000000   0.0000 312.0000 14.15679949    15
CTC2_L_00237027-02
1 10105U 23968VY  26075.70043981  .00000000  00000+0  00000-0 0  9996
2 10105  45.0000 312.0000 0000000   0.0000  42.0000 14.15679949    16
CTC2_L_00237027-03
1 10106U 23272RJ  26075.70043981  .00000000  00000+0  00000-0 0  9995
2 10106  45.0000 312.0000 0000000   0.0000 132.0000 14.15679949    17
CTC2_L_00237027-04
1 10107U 25913BY  26075.70043981  .00000000  00000+0  00000-0 0  9990
2 10107  45.0000 312.0000 0000000   0.0000 222.0000 14.15679949    18
CTC2_L_00237028-01
1 10108U 23699EK  26075.70043981  .00000000  00000+0  00000-0 0  9990
2 10108  45.0000 324.0000 0000000   0.0000 324.0000 14.15679949    15
CTC2_L_00237028-02
1 10109U 26350BI  26075.70043981  .00000000  00000+0  00000-0 0  9998
2 10109  45.0000 324.0000 0000000   0.0000  54.0000 14.15679949    16
CTC2_L_00237028-03
1 10110U 22368IF  26075.70043981  .00000000  00000+0  00000-0 0  9995
2 10110  45.0000 324.0000 0000000   0.0000 144.0000 14.15679949    18
CTC2_L_00237028-04
1 10111U 23290BK  26075.70043981  .00000000  00000+0  00000-0 0  9991
2 10111  45.0000 324.0000 0000000   0.0000 234.0000 14.15679949    19
CTC2_L_00237029-01
1 10112U 25356XA  26075.70043981  .00000000  00000+0  00000-0 0  9997
2 10112  45.0000 336.0000 0000000   0.0000 336.0000 14.15679949    16
CTC2_L_00237029-02
1 10113U 25345TD  26075.70043981  .00000000  00000+0  00000-0 0  9996
2 10113  45.0000 336.0000 0000000   0.0000  66.0000 14.15679949    17
CTC2_L_00237029-03
1 10114U 22581TA  26075.70043981  .00000000  00000+0  00000-0 0  9996
2 10114  45.0000 336.0000 0000000   0.0000 156.0000 14.15679949    18
CTC2_L_00237029-04
1 10115U 25506BI  26075.70043981  .00000000  00000+0  00000-0 0  9997
2 10115  45.0000 336.0000 0000000   0.0000 246.0000 14.15679949    19
CTC2_L_00237030-01
1 10116U 22470MK  26075.70043981  .00000000  00000+0  00000-0 0  9995
2 10116  45.0000 348.0000 0000000   0.0000 348.0000 14.15679949    16
CTC2_L_00237030-02
1 10117U 24125F   26075.70043981  .00000000  00000+0  00000-0 0  9995
2 10117  45.0000 348.0000 0000000   0.0000  78.0000 14.15679949    17
CTC2_L_00237030-03
1 10118U 26419EI  26075.70043981  .00000000  00000+0  00000-0 0  9994
2 10118  45.0000 348.0000 0000000   0.0000 168.0000 14.15679949    18
CTC2_L_00237030-04
1 10119U 24146IJ  26075.70043981  .00000000  00000+0  00000-0 0  9990
2 10119  45.0000 348.0000 0000000   0.0000 258.0000 14.15679949    19
